IRIDIUM 63              
1 25286U 98021B   25227.94326298  .00000320  00000+0  10222-3 0  9998
2 25286  86.3935  57.0457 0002345  89.3032 270.8434 14.36581186432422
IRIDIUM 69              
1 25319U 98026A   25227.84187536  .00000352  00000+0  10325-3 0  9998
2 25319  86.3922  70.1993 0002952 140.6889 219.4525 14.41014167431651
IRIDIUM 71              
1 25320U 98026B   25227.91042449  .00000333  00000+0  97164-4 0  9997
2 25320  86.3923  64.8499 0000758 164.2721 195.8502 14.41196996432197
IRIDIUM 73              
1 25344U 98032C   25227.89060708  .00000549  00000+0  13151-3 0  9997
2 25344  86.4423  21.4473 0002642 104.2820 255.8680 14.51770656439225
IRIDIUM 82              
1 25467U 98051A   25227.86990735  .00025917  00000+0  68398-3 0  9992
2 25467  86.3619  80.3279 0082995  70.3008 290.7172 15.34798154433105
